NORAD_CAT_ID,OBJECT_NAME,OBJECT_TYPE,EPOCH,MEAN_MOTION,ECCENTRICITY,INCLINATION,RA_OF_ASC_NODE,ARG_OF_PERICENTER,MEAN_ANOMALY,BSTAR,MEAN_MOTION_DOT,MEAN_MOTION_DDOT,TLE_LINE0,TLE_LINE1,TLE_LINE2,SEMIMAJOR_AXIS,PERIOD,APOGEE,PERIGEE,DECAYED
49739.0,STARLINK-3155,PAYLOAD,2023-01-29 18:26:24,15.08835365,0.0001097,53.2142,213.9806,87.3137,272.798,2.8315e-05,1.63e-06,0.0,0 STARLINK-3155,1 49739U 21115R   23029.76834362  .00000163  00000-0  28315-4 0  9990,2 49739  53.2142 213.9806 0001097  87.3137 272.7980 15.08835365 64050,6917.895,95.438,540.518,539.001,0.0
49739.0,STARLINK-3155,PAYLOAD,2023-01-30 11:55:39,15.08840983,0.0001098,53.2145,210.7095,85.7784,274.3333,7.4823e-05,9.03e-06,0.0,0 STARLINK-3155,1 49739U 21115R   23030.49697937  .00000903  00000-0  74823-4 0  9994,2 49739  53.2145 210.7095 0001098  85.7784 274.3333 15.08840983 65276,6917.877,95.437,540.502,538.983,0.0
49739.0,STARLINK-3155,PAYLOAD,2023-01-31 11:46:26,15.08837304,0.0001253,53.2158,206.2509,76.4629,283.6503,8.5007e-05,1.065e-05,0.0,0 STARLINK-3155,1 49739U 21115R   23031.49058106  .00001065  00000-0  85007-4 0  9990,2 49739  53.2158 206.2509 0001253  76.4629 283.6503 15.08837304 64317,6917.889,95.438,540.62,538.887,0.0
49739.0,STARLINK-3155,PAYLOAD,2023-02-01 11:37:13,15.08840835,0.0001145,53.215,201.788,92.9019,267.2104,-9.5699e-07,-3.03e-06,0.0,0 STARLINK-3155,1 49739U 21115R   23032.48418080 -.00000303  00000-0 -95699-6 0  9997,2 49739  53.2150 201.7880 0001145  92.9019 267.2104 15.08840835 64461,6917.878,95.438,540.535,538.951,0.0
49739.0,STARLINK-3155,PAYLOAD,2023-02-02 03:31:01,15.08864154,8.07e-05,53.2189,198.8151,110.6929,249.415,0.00031294,4.699e-05,0.0,0 STARLINK-3155,1 49739U 21115R   23033.14654649  .00004699  00000-0  31294-3 0  9992,2 49739  53.2189 198.8151 0000807 110.6929 249.4150 15.08864154 65679,6917.807,95.436,540.23,539.113,0.0
49739.0,STARLINK-3155,PAYLOAD,2023-02-02 11:27:58,15.08856643,0.0001844,53.2168,197.328,92.4238,267.6965,0.00017654,2.524e-05,0.0,0 STARLINK-3155,1 49739U 21115R   23033.47775537  .00002524  00000-0  17654-3 0  9997,2 49739  53.2168 197.3280 0001844  92.4238 267.6965 15.08856643 64618,6917.83,95.437,540.97,538.419,0.0
49739.0,STARLINK-3155,PAYLOAD,2023-02-02 21:00:18,15.0883073,0.0001124,53.2158,195.5436,98.2315,261.8805,-4.3393e-05,-9.78e-06,0.0,0 STARLINK-3155,1 49739U 21115R   23033.87521862 -.00000978  00000-0 -43393-4 0  9994,2 49739  53.2158 195.5436 0001124  98.2315 261.8805 15.08830730 65788,6917.909,95.438,540.551,538.996,0.0
49739.0,STARLINK-3155,PAYLOAD,2023-02-03 11:18:47,15.08829619,9.11e-05,53.2153,192.8676,80.426,279.6834,-0.00011851,-2.173e-05,0.0,0 STARLINK-3155,1 49739U 21115R   23034.47138517 -.00002173  00000-0 -11851-3 0  9994,2 49739  53.2153 192.8676 0000911  80.4260 279.6834 15.08829619 64764,6917.912,95.438,540.407,539.147,0.0
49739.0,STARLINK-3155,PAYLOAD,2023-02-03 19:15:43,15.0883189,9.95e-05,53.2153,191.3809,83.0707,277.0398,-6.8355e-05,-1.375e-05,0.0,0 STARLINK-3155,1 49739U 21115R   23034.80258374 -.00001375  00000-0 -68355-4 0  9990,2 49739  53.2153 191.3809 0000995  83.0707 277.0398 15.08831890 64810,6917.905,95.438,540.459,539.082,0.0
49739.0,STARLINK-3155,PAYLOAD,2023-02-04 03:12:38,15.08861172,0.0001293,53.2153,189.8942,95.5033,264.6107,-0.00040553,-6.74e-05,0.0,0 STARLINK-3155,1 49739U 21115R   23035.13377486 -.00006740  00000-0 -40553-3 0  9993,2 49739  53.2153 189.8942 0001293  95.5033 264.6107 15.08861172 65976,6917.816,95.436,540.575,538.786,0.0
49739.0,STARLINK-3155,PAYLOAD,2023-02-04 14:20:19,15.08858977,0.0001361,53.2156,187.8124,95.1578,264.9569,-0.00027895,-4.727e-05,0.0,0 STARLINK-3155,1 49739U 21115R   23035.59744776 -.00004727  00000-0 -27895-3 0  9990,2 49739  53.2156 187.8124 0001361  95.1578 264.9569 15.08858977 64934,6917.822,95.436,540.629,538.746,0.0
49739.0,STARLINK-3155,PAYLOAD,2023-02-04 19:06:28,15.08846682,0.0001575,53.2156,186.9199,70.0944,290.0218,0.00030603,4.587e-05,0.0,0 STARLINK-3155,1 49739U 21115R   23035.79616784  .00004587  00000-0  30603-3 0  9992,2 49739  53.2156 186.9199 0001575  70.0944 290.0218 15.08846682 64966,6917.86,95.437,540.815,538.635,0.0
49739.0,STARLINK-3155,PAYLOAD,2023-02-05 03:03:25,15.08833068,0.0001531,53.2156,185.4332,88.6247,271.492,0.00019461,2.81e-05,0.0,0 STARLINK-3155,1 49739U 21115R   23036.12738154  .00002810  00000-0  19461-3 0  9992,2 49739  53.2156 185.4332 0001531  88.6247 271.4920 15.08833068 66129,6917.902,95.438,540.826,538.707,0.0
49739.0,STARLINK-3155,PAYLOAD,2023-02-05 14:11:08,15.0882694,0.0001419,53.2152,183.3518,90.0106,270.1049,0.00016147,2.282e-05,0.0,0 STARLINK-3155,1 49739U 21115R   23036.59107060  .00002282  00000-0  16147-3 0  9990,2 49739  53.2152 183.3518 0001419  90.0106 270.1049 15.08826940 66190,6917.92,95.438,540.767,538.804,0.0
49739.0,STARLINK-3155,PAYLOAD,2023-02-05 18:57:17,15.08834526,0.0001268,53.2149,182.4595,83.6562,276.4575,0.00017607,2.515e-05,0.0,0 STARLINK-3155,1 49739U 21115R   23036.78978808  .00002515  00000-0  17607-3 0  9998,2 49739  53.2149 182.4595 0001268  83.6562 276.4575 15.08834526 65110,6917.897,95.438,540.639,538.885,0.0
49739.0,STARLINK-3155,PAYLOAD,2023-02-06 14:01:55,15.08833963,0.0001325,53.2145,178.8909,85.9634,274.151,9.1782e-05,1.173e-05,0.0,0 STARLINK-3155,1 49739U 21115R   23037.58467332  .00001173  00000-0  91782-4 0  9998,2 49739  53.2145 178.8909 0001325  85.9634 274.1510 15.08833963 65234,6917.899,95.438,540.68,538.847,0.0
49739.0,STARLINK-3155,PAYLOAD,2023-02-06 18:48:05,15.0883793,0.0001446,53.2148,177.9986,85.5602,274.5556,0.0001017,1.331e-05,0.0,0 STARLINK-3155,1 49739U 21115R   23037.78339241  .00001331  00000-0  10170-3 0  9994,2 49739  53.2148 177.9986 0001446  85.5602 274.5556 15.08837930 66375,6917.887,95.438,540.752,538.751,0.0
49739.0,STARLINK-3155,PAYLOAD,2023-02-07 13:52:41,15.08860792,0.0001213,53.2135,174.4299,86.6823,273.4307,0.00058896,9.103e-05,0.0,0 STARLINK-3155,1 49739U 21115R   23038.57826303  .00009103  00000-0  58896-3 0  9994,2 49739  53.2135 174.4299 0001213  86.6823 273.4307 15.08860792 65383,6917.817,95.436,540.521,538.843,0.0
49739.0,STARLINK-3155,PAYLOAD,2023-02-07 15:28:04,15.08865207,0.000118,53.2139,174.1325,87.0927,273.02,0.00064871,0.00010058,0.0,0 STARLINK-3155,1 49739U 21115R   23038.64450123  .00010058  00000-0  64871-3 0  9996,2 49739  53.2139 174.1325 0001180  87.0927 273.0200 15.08865207 66506,6917.803,95.436,540.485,538.852,0.0
49739.0,STARLINK-3155,PAYLOAD,2023-02-07 18:38:50,15.088755,0.0001191,53.2138,173.5374,88.6927,271.4202,0.00091147,0.00014262,0.0,0 STARLINK-3155,1 49739U 21115R   23038.77697767  .00014262  00000-0  91147-3 0  9994,2 49739  53.2138 173.5374 0001191  88.6927 271.4202 15.08875500 65411,6917.772,95.435,540.461,538.813,0.0
49739.0,STARLINK-3155,PAYLOAD,2023-02-08 13:43:28,15.08856019,0.0001086,53.2143,169.9697,87.7146,272.3971,0.00051142,7.864e-05,0.0,0 STARLINK-3155,1 49739U 21115R   23039.57186008  .00007864  00000-0  51142-3 0  9995,2 49739  53.2143 169.9697 0001086  87.7146 272.3971 15.08856019 66643,6917.831,95.437,540.448,538.945,0.0
49739.0,STARLINK-3155,PAYLOAD,2023-02-08 18:29:38,15.08858909,0.0001038,53.2143,169.0778,87.1603,272.9508,0.0015665,0.00024744,0.0,0 STARLINK-3155,1 49739U 21115R   23039.77057961  .00024744  00000-0  15665-2 0  9997,2 49739  53.2143 169.0778 0001038  87.1603 272.9508 15.08858909 65565,6917.823,95.436,540.406,538.97,0.0
49739.0,STARLINK-3155,PAYLOAD,2023-02-09 07:12:44,15.08833521,0.0001496,53.2156,166.6993,97.8086,262.3076,0.0015433,0.00024355,0.0,0 STARLINK-3155,1 49739U 21115R   23040.30050970  .00024355  00000-0  15433-2 0  9992,2 49739  53.2156 166.6993 0001496  97.8086 262.3076 15.08833521 66750,6917.9,95.438,540.8,538.73,0.0
49739.0,STARLINK-3155,PAYLOAD,2023-02-09 08:48:07,15.08838412,0.0001472,53.2157,166.4011,98.2876,261.8283,0.0015954,0.00025193,0.0,0 STARLINK-3155,1 49739U 21115R   23040.36675065  .00025193  00000-0  15954-2 0  9995,2 49739  53.2157 166.4011 0001472  98.2876 261.8283 15.08838412 65652,6917.885,95.438,540.769,538.732,0.0
49739.0,STARLINK-3155,PAYLOAD,2023-02-09 15:09:39,15.08835249,0.0001372,53.2161,165.2118,96.217,263.8978,0.0014256,0.0002247,0.0,0 STARLINK-3155,1 49739U 21115R   23040.63171270  .00022470  00000-0  14256-2 0  9993,2 49739  53.2161 165.2118 0001372  96.2170 263.8978 15.08835249 66802,6917.895,95.438,540.709,538.811,0.0
49739.0,STARLINK-3155,PAYLOAD,2023-02-10 00:41:59,15.08835995,0.0001448,53.2159,163.428,91.002,269.1138,0.00085247,0.00013304,0.0,0 STARLINK-3155,1 49739U 21115R   23041.02915608  .00013304  00000-0  85247-3 0  9993,2 49739  53.2159 163.4280 0001448  91.0020 269.1138 15.08835995 66861,6917.893,95.438,540.759,538.756,0.0
49739.0,STARLINK-3155,PAYLOAD,2023-02-10 15:00:26,15.0886556,0.0001435,53.2162,160.7521,88.7076,271.4081,0.0016733,0.00026462,0.0,0 STARLINK-3155,1 49739U 21115R   23041.62531095  .00026462  00000-0  16733-2 0  9995,2 49739  53.2162 160.7521 0001435  88.7076 271.4081 15.08865560 66957,6917.802,95.436,540.66,538.675,0.0
49739.0,STARLINK-3155,PAYLOAD,2023-02-11 00:32:45,15.08860558,0.0001186,53.2152,158.9668,101.3548,258.7577,0.00061684,9.548e-05,0.0,0 STARLINK-3155,1 49739U 21115R   23042.02274821  .00009548  00000-0  61684-3 0  9993,2 49739  53.2152 158.9668 0001186 101.3548 258.7577 15.08860558 67014,6917.818,95.436,540.503,538.862,0.0
49739.0,STARLINK-3155,PAYLOAD,2023-02-11 18:01:59,15.08861214,0.0001424,53.2147,155.6952,104.5823,255.5327,0.00053777,8.286e-05,0.0,0 STARLINK-3155,1 49739U 21115R   23042.75138120  .00008286  00000-0  53777-3 0  9996,2 49739  53.2147 155.6952 0001424 104.5823 255.5327 15.08861214 67124,6917.816,95.436,540.666,538.695,0.0
49739.0,STARLINK-3155,PAYLOAD,2023-02-12 16:17:24,15.08825465,0.0001542,53.2139,151.5335,81.8288,278.2879,-4.2044e-05,-9.57e-06,0.0,0 STARLINK-3155,1 49739U 21115R   23043.67875436 -.00000957  00000-0 -42044-4 0  9991,2 49739  53.2139 151.5335 0001542  81.8288 278.2879 15.08825465 67265,6917.925,95.438,540.857,538.723,0.0
